Name,Address,City,State,Country,Tags,Phone Number 1,Phone Number 2,Phone Number 3,Email 1,Email 2,Website,Facebook URL,Instagram URLs,LinkedIn URL,Owner Email,Owner Phone Number
Summit Auto Tint,"2583, North 1st Street, Abilene, Taylor County, Texas, 79603, United States",Taylor County,Texas,United States,Window tinting service,(325) 672-1344,,,,,http://www.summitautotint.com/,,,,,
Precision Solar Tint,"United Rentals, 12017, North Loop Road, San Antonio, Bexar County, Texas, 78216, United States",Bexar County,Texas,United States,Window tinting service,(210) 849-1305,,,,,https://www.precisionsolartint.com/,,,,,
The Trim Shop,"104, West Marshall Avenue, Longview, Gregg County, Texas, 75601, United States",Gregg County,Texas,United States,Window tinting service,(903) 753-7456,,,,,https://www.trimshoplongview.com/,,,,,
Texas Heat Auto Tint,"3901, South US Highway 287, Waxahachie, Ellis County, Texas, United States",Waxahachie,Ellis County,United States,Window tinting service,(214) 631-9495,,,,,https://www.facebook.com/Texas-Heat-Auto-Tint-Waxahachie-TX-105068228012080,,,,,
Darker Shade Mobile Window Tint,"8108, Arrowhead Pool, Bridgewood, Bexar County, Texas, 78254, United States",Bexar County,Texas,United States,Window tinting service,(210) 504-1652,,,,,<coroutine object GenerateLeadsService.get_missing_website_data at 0x000002203D08CB40>,,,,,
XPEL San Antonio,"12814, Cogburn, San Antonio, Bexar County, Texas, 78249, United States",Bexar County,Texas,United States,Window tinting service,(210) 678-3789,,,,,https://sanantonio-clearbra.com/,,,,,
Affordable Window Tint LLC,"Texana Drive, San Antonio, Bexar County, Texas, 78249, United States",Bexar County,Texas,United States,Window tinting service,(956) 693-0556,,,,,<coroutine object GenerateLeadsService.get_missing_website_data at 0x000002203D08D340>,,,,,
High Performance Tint,"1302, Missouri Street, South Houston, Harris County, Texas, 77587, United States",Harris County,Texas,United States,Window tinting service,(832) 518-7266,,,,,<coroutine object GenerateLeadsService.get_missing_website_data at 0x000002203D08DB40>,,,,,
Texas Tint Solutions LLC,"3728, CR 123, Round Rock, Williamson County, Texas, 78664, United States",Williamson County,Texas,United States,Window tinting service,(512) 366-2700,,,,,https://texastintsolution.com/,,,,,
Vive Auto Houston-Galleria - Window Tint - PPF - Ceramic Coating - Auto Detailing,"Pilgrim Academy, 6302, Skyline Drive, Houston, Harris County, Texas, 77057, United States",Harris County,Texas,United States,Window tinting service,(832) 479-2525,,,,,https://www.vive-houston.com/?utm_campaign=gmb,,,,,
Magic Tint,"1456, South Treadaway Boulevard, Abilene, Taylor County, Texas, 79602, United States",Taylor County,Texas,United States,Window tinting service,(325) 698-0082,,,,,https://magictintabilene.com/,,,,,
The Tint Factory,"1359, East 3rd Street, Boydstun, Big Spring, Howard County, Texas, 79720, United States",Howard County,Texas,United States,Window tinting service,(432) 466-4980,,,,,<coroutine object GenerateLeadsService.get_missing_website_data at 0x000002203D08DA40>,,,,,
Solstice Glass Tinting LLC,"16228, Robinwood Lane, San Antonio, Bexar County, Texas, 78248, United States",Bexar County,Texas,United States,Window tinting service,(210) 306-7461,,,,,http://solsticeglasstinting.com/?utm_source=gmb&utm_medium=referral,,,,,
Super Luxury Window Tint,"13786, Blanco Road, San Antonio, Bexar County, Texas, 78216, United States",Bexar County,Texas,United States,Auto window tinting service,(210) 926-3060,,,,,https://superluxurytint.com/,,,,,
Platinum Auto Films,"8335, Hudson Hollow, Wildhorse at Tausch Farms, Helotes, Bexar County, Texas, 78254, United States",Bexar County,Texas,United States,Window tinting service,(210) 850-2902,,,,,https://txplatinumautofilms.com/,,,,,
Sun-Masters Glass Tinting,"Paseo Canada, Hollywood Park, Bexar County, Texas, 78232, United States",Bexar County,Texas,United States,Window tinting service,(210) 520-1551,,,,,http://www.sun-masters.com/,,,,,
"Visions Glass Tinting, Inc.","177, Industrial Drive, Ten West Industrial Park, Boerne, Kendall County, Texas, 78006, United States",Kendall County,Texas,United States,Window tinting service,(210) 213-4078,,,,,https://www.visionsglasstintingtx.com/,,,,,
Texas Best Window Tinting,"2522, Franklin Drive, Mesquite, Dallas County, Texas, 75150, United States",Dallas County,Texas,United States,Window tinting service,(972) 289-9000,,,,,<coroutine object GenerateLeadsService.get_missing_website_data at 0x000002203D08D440>,,,,,
Abilene Window Tinting,"1443, Dunnam Drive, Abilene, Taylor County, Texas, 79602, United States",Taylor County,Texas,United States,Window tinting service,(325) 660-1812,,,,,http://abilenetinting.com/,,,,,
Texas Mobile Glass Tinters,"1650, Farm-to-Market Road 66, Waxahachie, Ellis County, Texas, 75167, United States",Ellis County,Texas,United States,Window tinting service,(972) 955-3463,,,,,http://texasmobileglasstinters.com/,,,,,
