Name,Address,City,State,Country,Tags,Phone Number 1,Phone Number 2,Phone Number 3,Email 1,Email 2,Website,Facebook URL,Instagram URLs,LinkedIn URL,Owner Email,Owner Phone Number
Lark Guitars,"Olmos Park, TX",,,,Guitar store,(210) 384-4303,,,,,,,,,,
JAMS Music,"San Marcos, TX",,,,Musical instrument store,(737) 315-6301,,,,,,,,,,
Tone Shop Guitars,"Fort Worth, TX",,,,Guitar store,(817) 386-7717,,,,,,,,,,
Guitarasaur Guitars & Ukuleles (in Lone Star Antiques),"Haltom City, TX",,,,Guitar store,(817) 405-9685,,,,,,,,,,
Texas Music Emporium,"Houston, TX",,,,Musical instrument store,(281) 233-0100,,,,,,,,,,
Hearts' Home Acoustics Guitar Store,"Boerne, TX",,,,Guitar store,(830) 331-9840,,,,,,,,,,
Brownwood Music,"Brownwood, TX",,,,Music store,(325) 646-1365,,,,,,,,,,
Infinity Guitars,"Houston, TX",,,,Guitar store,(281) 759-4040,,,,,,,,,,
South Austin Music,"Austin, TX",,,,Musical instrument store,(512) 448-4992,,,,,,,,,,
Encore Music,"Abilene, TX",,,,Music store,(325) 232-8735,,,,,,,,,,
Austin Vintage Guitars,"Austin, TX",,,,Guitar store,(512) 428-9100,,,,,,,,,,
Deatherage Music,"Abilene, TX",,,,Musical instrument manufacturer,(325) 672-6012,,,,,,,,,,
Hillje Music Center,"San Antonio, TX",,,,Musical instrument store,(210) 680-0181,,,,,,,,,,
Guitar Center,"San Antonio, TX",,,,Musical instrument store,(210) 348-7225,,,,,,,,,,
Music City Guitars,"Manchaca, TX",,,,Musical instrument store,(512) 344-9443,,,,,,,,,,
Hillje Music Center,"Boerne, TX",,,,Musical instrument store,(830) 331-1053,,,,,,,,,,
Charley's Guitar Shop,"Dallas, TX",,,,Guitar store,(972) 243-4187,,,,,,,,,,
Austin Guitar House,"Austin, TX",,,,Musical instrument store,(512) 243-6036,,,,,,,,,,
Music Go Round San Antonio,"San Antonio, TX",,,,Musical instrument store,(210) 276-0000,,,,,,,,,,
Mythic Guitar Company,"Austin, TX",,,,Musical instrument store,(512) 402-5195,,,,,,,,,,
